OBJECT_NAME,OBJECT_ID,EPOCH,MEAN_MOTION,ECCENTRICITY,INCLINATION,RA_OF_ASC_NODE,ARG_OF_PERICENTER,MEAN_ANOMALY,EPHEMERIS_TYPE,CLASSIFICATION_TYPE,NORAD_CAT_ID,ELEMENT_SET_NO,REV_AT_EPOCH,BSTAR,MEAN_MOTION_DOT,MEAN_MOTION_DDOT
STARLINK-3849,2022-045N,2026-05-20T23:54:49.541472,15.08837007,.00009651,53.2167,244.5245,86.1295,273.9808,0,U,52343,999,22656,-.4768838E-5,-.364E-5,0
STARLINK-3851,2022-045P,2026-05-20T15:38:02.003712,15.08839896,.00012116,53.2165,236.1386,89.0252,271.0879,0,U,52344,999,22664,.29060987E-4,.175E-5,0
STARLINK-3852,2022-045Q,2026-05-20T16:16:30.965952,15.08842618,.00012653,53.2168,236.1182,91.5389,268.5748,0,U,52345,999,22663,-.3294315E-5,-.34E-5,0
STARLINK-3812,2022-045R,2026-05-20T18:39:34.412832,15.08844389,.00011448,53.2162,235.5144,86.6125,273.4998,0,U,52346,999,22666,.11517315E-3,.1546E-4,0
STARLINK-3826,2022-045S,2026-05-20T23:41:37.666464,15.08841130,.0000824,53.2204,234.5727,93.1535,266.9552,0,U,52347,999,22669,.20485295E-4,.38E-6,0
STARLINK-3829,2022-045T,2026-05-20T16:52:11.087904,15.08856880,.00012239,53.2174,235.8394,72.3549,287.7577,0,U,52348,999,22665,.16951055E-3,.2412E-4,0
STARLINK-3819,2022-045U,2026-05-19T23:38:53.202336,15.08830847,.00012543,53.2186,239.0630,89.4209,270.6927,0,U,52349,999,22654,.97899248E-4,.127E-4,0
STARLINK-3754,2022-045V,2026-05-20T23:08:27.449376,15.08838095,.00013452,53.2158,234.6694,88.0789,272.0357,0,U,52350,999,22669,.28499578E-4,.166E-5,0
STARLINK-3838,2022-045X,2026-05-20T22:52:33.510432,15.08835928,.00013179,53.2165,234.7191,88.1313,271.9830,0,U,52352,999,22669,-.2897722E-4,-.749E-5,0
STARLINK-3807,2022-045Y,2026-05-20T23:03:10.191168,15.08831193,.00012136,53.2162,234.6856,83.2296,276.8834,0,U,52353,999,22669,-.89722236E-4,-.1715E-4,0
STARLINK-3877,2022-045AA,2026-05-20T22:57:51.112512,15.08823093,.00009715,53.2172,234.7017,83.4228,276.6875,0,U,52355,999,22669,.58340289E-4,.64E-5,0
STARLINK-3801,2022-045AB,2026-05-20T16:20:24.904320,15.08840150,.00010961,53.2188,235.9692,85.8796,274.2322,0,U,52356,999,22665,.2290593E-5,-.251E-5,0
STARLINK-3821,2022-045AC,2026-05-20T22:47:15.369216,15.08836127,.00011536,53.2168,234.7358,87.2269,272.8856,0,U,52357,999,22669,-.12892123E-4,-.493E-5,0
STARLINK-3837,2022-045AD,2026-05-20T14:23:49.907616,15.08841484,.00011523,53.2161,236.3042,90.0230,270.0894,0,U,52358,999,22664,.35743984E-4,.281E-5,0
STARLINK-3853,2022-045AE,2026-05-19T13:20:13.721568,15.08840732,.00011874,53.2171,241.0035,87.9737,272.1391,0,U,52359,999,22648,.86406014E-4,.1088E-4,0
STARLINK-3728,2022-045AG,2026-05-20T16:09:48.669408,15.08841405,.00010279,53.2179,235.9755,89.5680,270.5430,0,U,52361,999,22665,.10650986E-4,-.118E-5,0
STARLINK-3848,2022-045AH,2026-05-20T22:06:11.437344,15.08834507,.00010639,53.2193,224.8581,90.3921,269.7193,0,U,52362,999,22682,-.26889978E-4,-.716E-5,0
STARLINK-3830,2022-045AJ,2026-05-20T16:04:30.952416,15.08842083,.00008673,53.2174,235.9915,90.3256,269.7836,0,U,52363,999,22665,-.63083592E-4,-.1292E-4,0
STARLINK-3820,2022-045AK,2026-05-20T16:58:49.200096,15.08846784,.00012032,53.2152,225.7334,87.0561,273.0568,0,U,52364,999,22679,.13473739E-3,.1858E-4,0
STARLINK-3874,2022-045AL,2026-05-20T22:16:47.261856,15.08837085,.00010595,53.2165,224.8286,83.8554,276.2559,0,U,52365,999,22682,-.11031492E-4,-.463E-5,0
STARLINK-3808,2022-045AM,2026-05-20T17:04:08.106816,15.08840101,.00013432,53.2157,225.8049,88.7767,271.3379,0,U,52366,999,22679,-.600066E-6,-.297E-5,0
STARLINK-3817,2022-045AN,2026-05-20T12:28:34.546656,15.08843406,.0001153,53.2174,226.6640,84.8017,275.3106,0,U,52367,999,22676,.7419683E-4,.893E-5,0
STARLINK-3834,2022-045AP,2026-05-20T12:02:05.264448,15.08862825,.00014145,53.2152,226.7456,76.3031,283.8119,0,U,52368,999,22675,-.19870187E-3,-.3451E-4,0
STARLINK-3841,2022-045AQ,2026-05-20T15:34:02.667936,15.08844720,.00011205,53.2169,226.0850,84.1078,276.0042,0,U,52369,999,22678,.10458439E-3,.1377E-4,0
STARLINK-3827,2022-045AR,2026-05-20T17:00:12.288384,15.08845349,.00010582,53.2163,225.8279,81.6620,278.4492,0,U,52370,999,22679,.42144458E-4,.383E-5,0
STARLINK-3798,2022-045AS,2026-05-21T05:38:00.219264,15.08837568,.00011514,53.2167,223.4653,84.6861,275.4262,0,U,52371,999,22686,-.49045805E-4,-.1068E-4,0
STARLINK-3796,2022-045AT,2026-05-20T23:04:29.046720,15.08845077,.00011338,53.2168,224.6799,81.4395,278.6726,0,U,52372,999,22682,.9866406E-4,.1283E-4,0
STARLINK-3550,2022-045AU,2026-05-20T22:48:35.550144,15.08841640,.00010968,53.2162,224.7293,82.3159,277.7958,0,U,52373,999,22683,.96329125E-4,.1246E-4,0
STARLINK-3762,2022-045AV,2026-05-20T22:53:52.936224,15.08841489,.0001081,53.2170,224.7138,83.2789,276.8326,0,U,52374,999,22683,.48129397E-4,.478E-5,0
STARLINK-3785,2022-045AW,2026-05-20T22:59:11.037696,15.08845405,.00012015,53.2168,224.6974,87.7972,272.3158,0,U,52375,999,22683,.11027581E-3,.1468E-4,0
