STARLINK-3849           
1 52343U 22045N   26140.99640673 -.00000364  00000+0 -47688-5 0  9999
2 52343  53.2167 244.5245 0000965  86.1295 273.9808 15.08837007226567
STARLINK-3851           
1 52344U 22045P   26140.65141208  .00000175  00000+0  29061-4 0  9995
2 52344  53.2165 236.1386 0001211  89.0252 271.0879 15.08839896226643
STARLINK-3852           
1 52345U 22045Q   26140.67813618 -.00000340  00000+0 -32943-5 0  9999
2 52345  53.2168 236.1182 0001265  91.5389 268.5748 15.08842618226630
STARLINK-3812           
1 52346U 22045R   26140.77748163  .00001546  00000+0  11517-3 0  9992
2 52346  53.2162 235.5144 0001144  86.6125 273.4998 15.08844389226667
STARLINK-3826           
1 52347U 22045S   26140.98724151  .00000038  00000+0  20485-4 0  9997
2 52347  53.2204 234.5727 0000824  93.1535 266.9552 15.08841130226690
STARLINK-3829           
1 52348U 22045T   26140.70290611  .00002412  00000+0  16951-3 0  9997
2 52348  53.2174 235.8394 0001223  72.3549 287.7577 15.08856880226651
STARLINK-3819           
1 52349U 22045U   26139.98533799  .00001270  00000+0  97899-4 0  9995
2 52349  53.2186 239.0630 0001254  89.4209 270.6927 15.08830847226543
STARLINK-3754           
1 52350U 22045V   26140.96420659  .00000166  00000+0  28500-4 0  9993
2 52350  53.2158 234.6694 0001345  88.0789 272.0357 15.08838095226696
STARLINK-3838           
1 52352U 22045X   26140.95316563 -.00000749  00000+0 -28977-4 0  9999
2 52352  53.2165 234.7191 0001317  88.1313 271.9830 15.08835928226698
STARLINK-3807           
1 52353U 22045Y   26140.96053462 -.00001715  00000+0 -89722-4 0  9996
2 52353  53.2162 234.6856 0001213  83.2296 276.8834 15.08831193226692
STARLINK-3877           
1 52355U 22045AA  26140.95684158  .00000640  00000+0  58340-4 0  9995
2 52355  53.2172 234.7017 0000971  83.4228 276.6875 15.08823093226695
STARLINK-3801           
1 52356U 22045AB  26140.68084380 -.00000251  00000+0  22906-5 0  9996
2 52356  53.2188 235.9692 0001096  85.8796 274.2322 15.08840150226650
STARLINK-3821           
1 52357U 22045AC  26140.94948344 -.00000493  00000+0 -12892-4 0  9996
2 52357  53.2168 234.7358 0001153  87.2269 272.8856 15.08836127226699
STARLINK-3837           
1 52358U 22045AD  26140.59988319  .00000281  00000+0  35744-4 0  9998
2 52358  53.2161 236.3042 0001152  90.0230 270.0894 15.08841484226649
STARLINK-3853           
1 52359U 22045AE  26139.55571437  .00001088  00000+0  86406-4 0  9999
2 52359  53.2171 241.0035 0001187  87.9737 272.1391 15.08840732226483
STARLINK-3728           
1 52361U 22045AG  26140.67347997 -.00000118  00000+0  10651-4 0  9992
2 52361  53.2179 235.9755 0001027  89.5680 270.5430 15.08841405226656
STARLINK-3848           
1 52362U 22045AH  26140.92096571 -.00000716  00000+0 -26890-4 0  9997
2 52362  53.2193 224.8581 0001063  90.3921 269.7193 15.08834507226825
STARLINK-3830           
1 52363U 22045AJ  26140.66980269 -.00001292  00000+0 -63084-4 0  9991
2 52363  53.2174 235.9915 0000867  90.3256 269.7836 15.08842083226654
STARLINK-3820           
1 52364U 22045AK  26140.70751389  .00001858  00000+0  13474-3 0  9999
2 52364  53.2152 225.7334 0001203  87.0561 273.0568 15.08846784226797
STARLINK-3874           
1 52365U 22045AL  26140.92832479 -.00000463  00000+0 -11031-4 0  9995
2 52365  53.2165 224.8286 0001059  83.8554 276.2559 15.08837085226826
STARLINK-3808           
1 52366U 22045AM  26140.71120494 -.00000297  00000+0 -60007-6 0  9994
2 52366  53.2157 225.8049 0001343  88.7767 271.3379 15.08840101226797
STARLINK-3817           
1 52367U 22045AN  26140.51984429  .00000893  00000+0  74197-4 0  9992
2 52367  53.2174 226.6640 0001153  84.8017 275.3106 15.08843406226767
STARLINK-3834           
1 52368U 22045AP  26140.50144982 -.00003451  00000+0 -19870-3 0  9995
2 52368  53.2152 226.7456 0001414  76.3031 283.8119 15.08862825226755
STARLINK-3841           
1 52369U 22045AQ  26140.64864199  .00001377  00000+0  10458-3 0  9996
2 52369  53.2169 226.0850 0001120  84.1078 276.0042 15.08844720226783
STARLINK-3827           
1 52370U 22045AR  26140.70847556  .00000383  00000+0  42144-4 0  9997
2 52370  53.2163 225.8279 0001058  81.6620 278.4492 15.08845349226790
STARLINK-3798           
1 52371U 22045AS  26141.23472476 -.00001068  00000+0 -49046-4 0  9993
2 52371  53.2167 223.4653 0001151  84.6861 275.4262 15.08837568226863
STARLINK-3796           
1 52372U 22045AT  26140.96144730  .00001283  00000+0  98664-4 0  9999
2 52372  53.2168 224.6799 0001133  81.4395 278.6726 15.08845077226826
STARLINK-3550           
1 52373U 22045AU  26140.95041146  .00001246  00000+0  96329-4 0  9991
2 52373  53.2162 224.7293 0001096  82.3159 277.7958 15.08841640226837
STARLINK-3762           
1 52374U 22045AV  26140.95408491  .00000478  00000+0  48129-4 0  9993
2 52374  53.2170 224.7138 0001081  83.2789 276.8326 15.08841489226838
STARLINK-3785           
1 52375U 22045AW  26140.95776664  .00001468  00000+0  11028-3 0  9991
2 52375  53.2168 224.6974 0001201  87.7972 272.3158 15.08845405226836
